[
  {
    "OBJECT_NAME": "CYGFM04",
    "OBJECT_ID": "2016-078B",
    "EPOCH": "2025-06-21T01:38:12.899904",
    "MEAN_MOTION": 15.42841931,
    "ECCENTRICITY": 0.0008665,
    "INCLINATION": 34.9357,
    "RA_OF_ASC_NODE": 80.146,
    "ARG_OF_PERICENTER": 4.2739,
    "MEAN_ANOMALY": 355.8054,
    "EPHEMERIS_TYPE": 0,
    "CLASSIFICATION_TYPE": "U",
    "NORAD_CAT_ID": 41885,
    "ELEMENT_SET_NO": 999,
    "REV_AT_EPOCH": 47289,
    "BSTAR": 0.00024597,
    "MEAN_MOTION_DOT": 0.00011086,
    "MEAN_MOTION_DDOT": 0
  },
  {
    "OBJECT_NAME": "CYGFM02",
    "OBJECT_ID": "2016-078C",
    "EPOCH": "2025-06-21T20:14:11.738688",
    "MEAN_MOTION": 15.43701698,
    "ECCENTRICITY": 0.0010405,
    "INCLINATION": 34.9449,
    "RA_OF_ASC_NODE": 75.3009,
    "ARG_OF_PERICENTER": 7.4668,
    "MEAN_ANOMALY": 352.6206,
    "EPHEMERIS_TYPE": 0,
    "CLASSIFICATION_TYPE": "U",
    "NORAD_CAT_ID": 41886,
    "ELEMENT_SET_NO": 999,
    "REV_AT_EPOCH": 47319,
    "BSTAR": 0.00024376,
    "MEAN_MOTION_DOT": 0.00011318,
    "MEAN_MOTION_DDOT": 0
  },
  {
    "OBJECT_NAME": "CYGFM01",
    "OBJECT_ID": "2016-078D",
    "EPOCH": "2025-06-21T04:04:53.509728",
    "MEAN_MOTION": 15.41284247,
    "ECCENTRICITY": 0.0009819,
    "INCLINATION": 34.9438,
    "RA_OF_ASC_NODE": 104.0377,
    "ARG_OF_PERICENTER": 331.7076,
    "MEAN_ANOMALY": 28.311,
    "EPHEMERIS_TYPE": 0,
    "CLASSIFICATION_TYPE": "U",
    "NORAD_CAT_ID": 41887,
    "ELEMENT_SET_NO": 999,
    "REV_AT_EPOCH": 47270,
    "BSTAR": 0.00021845,
    "MEAN_MOTION_DOT": 9.339e-05,
    "MEAN_MOTION_DDOT": 0
  },
  {
    "OBJECT_NAME": "CYGFM08",
    "OBJECT_ID": "2016-078E",
    "EPOCH": "2025-06-21T20:39:33.681600",
    "MEAN_MOTION": 15.42228667,
    "ECCENTRICITY": 0.0011002,
    "INCLINATION": 34.9469,
    "RA_OF_ASC_NODE": 84.283,
    "ARG_OF_PERICENTER": 2.7715,
    "MEAN_ANOMALY": 357.3064,
    "EPHEMERIS_TYPE": 0,
    "CLASSIFICATION_TYPE": "U",
    "NORAD_CAT_ID": 41888,
    "ELEMENT_SET_NO": 999,
    "REV_AT_EPOCH": 47305,
    "BSTAR": 0.00023918,
    "MEAN_MOTION_DOT": 0.00010565,
    "MEAN_MOTION_DDOT": 0
  },
  {
    "OBJECT_NAME": "CYGFM07",
    "OBJECT_ID": "2016-078G",
    "EPOCH": "2025-06-21T02:06:56.373408",
    "MEAN_MOTION": 15.4278866,
    "ECCENTRICITY": 0.0008898,
    "INCLINATION": 34.9487,
    "RA_OF_ASC_NODE": 79.2565,
    "ARG_OF_PERICENTER": 11.3124,
    "MEAN_ANOMALY": 348.7795,
    "EPHEMERIS_TYPE": 0,
    "CLASSIFICATION_TYPE": "U",
    "NORAD_CAT_ID": 41890,
    "ELEMENT_SET_NO": 999,
    "REV_AT_EPOCH": 47291,
    "BSTAR": 0.00024555,
    "MEAN_MOTION_DOT": 0.00011047,
    "MEAN_MOTION_DDOT": 0
  },
  {
    "OBJECT_NAME": "CYGFM03",
    "OBJECT_ID": "2016-078H",
    "EPOCH": "2025-06-21T10:03:16.216416",
    "MEAN_MOTION": 15.42554019,
    "ECCENTRICITY": 0.0008301,
    "INCLINATION": 34.944,
    "RA_OF_ASC_NODE": 78.7528,
    "ARG_OF_PERICENTER": 358.2934,
    "MEAN_ANOMALY": 1.7756,
    "EPHEMERIS_TYPE": 0,
    "CLASSIFICATION_TYPE": "U",
    "NORAD_CAT_ID": 41891,
    "ELEMENT_SET_NO": 999,
    "REV_AT_EPOCH": 47294,
    "BSTAR": 0.0002161,
    "MEAN_MOTION_DOT": 9.637e-05,
    "MEAN_MOTION_DDOT": 0
  },
  {
    "OBJECT_NAME": "FENGYUN 3D",
    "OBJECT_ID": "2017-072A",
    "EPOCH": "2025-06-21T20:46:50.083680",
    "MEAN_MOTION": 14.19633213,
    "ECCENTRICITY": 0.0001985,
    "INCLINATION": 98.9628,
    "RA_OF_ASC_NODE": 136.8354,
    "ARG_OF_PERICENTER": 35.9069,
    "MEAN_ANOMALY": 324.224,
    "EPHEMERIS_TYPE": 0,
    "CLASSIFICATION_TYPE": "U",
    "NORAD_CAT_ID": 43010,
    "ELEMENT_SET_NO": 999,
    "REV_AT_EPOCH": 39386,
    "BSTAR": 5.0112e-05,
    "MEAN_MOTION_DOT": 6e-07,
    "MEAN_MOTION_DDOT": 0
  },
  {
    "OBJECT_NAME": "NOAA 20 (JPSS-1)",
    "OBJECT_ID": "2017-073A",
    "EPOCH": "2025-06-21T19:43:10.063200",
    "MEAN_MOTION": 14.19511015,
    "ECCENTRICITY": 3.8e-05,
    "INCLINATION": 98.7419,
    "RA_OF_ASC_NODE": 111.2411,
    "ARG_OF_PERICENTER": 154.49,
    "MEAN_ANOMALY": 205.6295,
    "EPHEMERIS_TYPE": 0,
    "CLASSIFICATION_TYPE": "U",
    "NORAD_CAT_ID": 43013,
    "ELEMENT_SET_NO": 999,
    "REV_AT_EPOCH": 39334,
    "BSTAR": 3.434e-05,
    "MEAN_MOTION_DOT": 2.8e-07,
    "MEAN_MOTION_DDOT": 0
  },
  {
    "OBJECT_NAME": "GOES 17",
    "OBJECT_ID": "2018-022A",
    "EPOCH": "2025-06-21T10:37:46.071840",
    "MEAN_MOTION": 1.00422124,
    "ECCENTRICITY": 7.89e-05,
    "INCLINATION": 0.05,
    "RA_OF_ASC_NODE": 150.5299,
    "ARG_OF_PERICENTER": 66.1729,
    "MEAN_ANOMALY": 112.2634,
    "EPHEMERIS_TYPE": 0,
    "CLASSIFICATION_TYPE": "U",
    "NORAD_CAT_ID": 43226,
    "ELEMENT_SET_NO": 999,
    "REV_AT_EPOCH": 2680,
    "BSTAR": 0,
    "MEAN_MOTION_DOT": -1.29e-06,
    "MEAN_MOTION_DDOT": 0
  },
  {
    "OBJECT_NAME": "FENGYUN 2H",
    "OBJECT_ID": "2018-050A",
    "EPOCH": "2025-06-21T10:42:43.513344",
    "MEAN_MOTION": 1.00266376,
    "ECCENTRICITY": 0.0001046,
    "INCLINATION": 2.1008,
    "RA_OF_ASC_NODE": 83.3951,
    "ARG_OF_PERICENTER": 111.1718,
    "MEAN_ANOMALY": 314.889,
    "EPHEMERIS_TYPE": 0,
    "CLASSIFICATION_TYPE": "U",
    "NORAD_CAT_ID": 43491,
    "ELEMENT_SET_NO": 999,
    "REV_AT_EPOCH": 2582,
    "BSTAR": 0,
    "MEAN_MOTION_DOT": -1.15e-06,
    "MEAN_MOTION_DDOT": 0
  },
  {
    "OBJECT_NAME": "METOP-C",
    "OBJECT_ID": "2018-087A",
    "EPOCH": "2025-06-21T19:43:13.841472",
    "MEAN_MOTION": 14.21490017,
    "ECCENTRICITY": 0.0002254,
    "INCLINATION": 98.7149,
    "RA_OF_ASC_NODE": 233.0005,
    "ARG_OF_PERICENTER": 114.5182,
    "MEAN_ANOMALY": 245.6231,
    "EPHEMERIS_TYPE": 0,
    "CLASSIFICATION_TYPE": "U",
    "NORAD_CAT_ID": 43689,
    "ELEMENT_SET_NO": 999,
    "REV_AT_EPOCH": 34363,
    "BSTAR": 5.4767e-05,
    "MEAN_MOTION_DOT": 7.6e-07,
    "MEAN_MOTION_DDOT": 0
  },
  {
    "OBJECT_NAME": "GEO-KOMPSAT-2A",
    "OBJECT_ID": "2018-100A",
    "EPOCH": "2025-06-21T19:30:48.004704",
    "MEAN_MOTION": 1.00272787,
    "ECCENTRICITY": 0.0002153,
    "INCLINATION": 0.0455,
    "RA_OF_ASC_NODE": 153.9513,
    "ARG_OF_PERICENTER": 289.4095,
    "MEAN_ANOMALY": 247.8427,
    "EPHEMERIS_TYPE": 0,
    "CLASSIFICATION_TYPE": "U",
    "NORAD_CAT_ID": 43823,
    "ELEMENT_SET_NO": 999,
    "REV_AT_EPOCH": 2404,
    "BSTAR": 0,
    "MEAN_MOTION_DOT": -3.34e-06,
    "MEAN_MOTION_DDOT": 0
  },
  {
    "OBJECT_NAME": "METEOR-M2 2",
    "OBJECT_ID": "2019-038A",
    "EPOCH": "2025-06-21T20:41:54.951648",
    "MEAN_MOTION": 14.24211565,
    "ECCENTRICITY": 0.0001375,
    "INCLINATION": 98.8747,
    "RA_OF_ASC_NODE": 150.6645,
    "ARG_OF_PERICENTER": 28.9153,
    "MEAN_ANOMALY": 331.2101,
    "EPHEMERIS_TYPE": 0,
    "CLASSIFICATION_TYPE": "U",
    "NORAD_CAT_ID": 44387,
    "ELEMENT_SET_NO": 999,
    "REV_AT_EPOCH": 31000,
    "BSTAR": 3.8503e-05,
    "MEAN_MOTION_DOT": 4.3e-07,
    "MEAN_MOTION_DDOT": 0
  },
  {
    "OBJECT_NAME": "ARKTIKA-M 1",
    "OBJECT_ID": "2021-016A",
    "EPOCH": "2025-06-19T03:01:11.930592",
    "MEAN_MOTION": 2.0059227,
    "ECCENTRICITY": 0.7111978,
    "INCLINATION": 63.1486,
    "RA_OF_ASC_NODE": 107.4376,
    "ARG_OF_PERICENTER": 268.6516,
    "MEAN_ANOMALY": 16.5378,
    "EPHEMERIS_TYPE": 0,
    "CLASSIFICATION_TYPE": "U",
    "NORAD_CAT_ID": 47719,
    "ELEMENT_SET_NO": 999,
    "REV_AT_EPOCH": 3150,
    "BSTAR": 0,
    "MEAN_MOTION_DOT": 2.8e-07,
    "MEAN_MOTION_DDOT": 0
  }
]