CYGFM04                 
1 41885U 16078B   25172.06820486  .00011086  00000+0  24597-3 0  9994
2 41885  34.9357  80.1460 0008665   4.2739 355.8054 15.42841931472896
CYGFM02                 
1 41886U 16078C   25172.84319142  .00011318  00000+0  24376-3 0  9996
2 41886  34.9449  75.3009 0010405   7.4668 352.6206 15.43701698473199
CYGFM01                 
1 41887U 16078D   25172.17006377  .00009339  00000+0  21845-3 0  9994
2 41887  34.9438 104.0377 0009819 331.7076  28.3110 15.41284247472700
CYGFM08                 
1 41888U 16078E   25172.86080650  .00010565  00000+0  23918-3 0  9993
2 41888  34.9469  84.2830 0011002   2.7715 357.3064 15.42228667473057
CYGFM07                 
1 41890U 16078G   25172.08815247  .00011047  00000+0  24555-3 0  9992
2 41890  34.9487  79.2565 0008898  11.3124 348.7795 15.42788660472911
CYGFM03                 
1 41891U 16078H   25172.41893769  .00009637  00000+0  21610-3 0  9996
2 41891  34.9440  78.7528 0008301 358.2934   1.7756 15.42554019472940
FENGYUN 3D              
1 43010U 17072A   25172.86585745  .00000060  00000+0  50112-4 0  9998
2 43010  98.9628 136.8354 0001985  35.9069 324.2240 14.19633213393866
NOAA 20 (JPSS-1)        
1 43013U 17073A   25172.82164425  .00000028  00000+0  34340-4 0  9995
2 43013  98.7419 111.2411 0000380 154.4900 205.6295 14.19511015393345
GOES 17                 
1 43226U 18022A   25172.44289435 -.00000129  00000+0  00000+0 0  9997
2 43226   0.0500 150.5299 0000789  66.1729 112.2634  1.00422124 26801
FENGYUN 2H              
1 43491U 18050A   25172.44633696 -.00000115  00000+0  00000+0 0  9999
2 43491   2.1008  83.3951 0001046 111.1718 314.8890  1.00266376 25825
METOP-C                 
1 43689U 18087A   25172.82168798  .00000076  00000+0  54767-4 0  9995
2 43689  98.7149 233.0005 0002254 114.5182 245.6231 14.21490017343639
GEO-KOMPSAT-2A          
1 43823U 18100A   25172.81305561 -.00000334  00000+0  00000+0 0  9995
2 43823   0.0455 153.9513 0002153 289.4095 247.8427  1.00272787 24049
METEOR-M2 2             
1 44387U 19038A   25172.86244157  .00000043  00000+0  38503-4 0  9990
2 44387  98.8747 150.6645 0001375  28.9153 331.2101 14.24211565310008
ARKTIKA-M 1             
1 47719U 21016A   25170.12583253  .00000028  00000+0  00000+0 0  9990
2 47719  63.1486 107.4376 7111978 268.6516  16.5378  2.00592270 31500
